     2              NAVIGATION DATA                         RINEX VERSION / TYPE
CCRINEXN V1.6.0 UX  CDDIS               22-APR-17 17:31     PGM / RUN BY / DATE 
IGS BROADCAST EPHEMERIS FILE                                COMMENT             
    0.1024D-07  0.1490D-07 -0.5960D-07 -0.1192D-06          ION ALPHA           
    0.8806D+05  0.3277D+05 -0.1966D+06 -0.1966D+06          ION BETA            
   -0.931322574615D-09 0.177635683940D-14    61440     1946 DELTA-UTC: A0,A1,T,W
    18                                                      LEAP SECONDS        
                                                            END OF HEADER       
21 17  4 21 20  0  0.0-0.511164311320D-03 0.204636307899D-11 0.000000000000D+00
    0.210000000000D+02-0.716562500000D+02 0.497913597243D-08-0.272713367926D+01
   -0.372156500816D-05 0.240215167869D-01 0.415556132793D-05 0.515369920158D+04
    0.504000000000D+06 0.299885869026D-06-0.181009773932D+01 0.111758708954D-07
    0.939049492323D+00 0.282750000000D+03-0.168173551389D+01-0.807319342377D-08
   -0.118576367753D-09 0.100000000000D+01 0.194500000000D+04 0.000000000000D+00
    0.200000000000D+01 0.000000000000D+00-0.977888703346D-08 0.210000000000D+02
    0.496800000000D+06 0.400000000000D+01 0.000000000000D+00 0.000000000000D+00
22 17  4 21 20  0  0.0 0.340659171343D-04-0.120508047985D-10 0.000000000000D+00
    0.310000000000D+02-0.231250000000D+02 0.516700094062D-08 0.697225475062D+00
   -0.117719173431D-05 0.759752257727D-02 0.111218541861D-04 0.515353771782D+04
    0.504000000000D+06-0.139698386192D-06-0.769123372390D+00-0.126659870148D-06
    0.923569789977D+00 0.149812500000D+03-0.176463677881D+01-0.838356349479D-08
   -0.867893294097D-10 0.100000000000D+01 0.194500000000D+04 0.000000000000D+00
    0.200000000000D+01 0.000000000000D+00-0.176951289177D-07 0.310000000000D+02
    0.496818000000D+06 0.400000000000D+01 0.000000000000D+00 0.000000000000D+00
23 17  4 21 20  0  0.0-0.210281461477D-03-0.795807864051D-12 0.000000000000D+00
    0.560000000000D+02 0.519062500000D+02 0.514271421469D-08-0.106610077492D+00
    0.287033617497D-05 0.115543429274D-01 0.660866498947D-05 0.515375709915D+04
    0.504000000000D+06 0.912696123123D-07 0.313841970423D+00 0.171363353729D-06
    0.944925485654D+00 0.245187500000D+03-0.247837964790D+01-0.856928551657D-08
    0.368586781690D-09 0.100000000000D+01 0.194500000000D+04 0.000000000000D+00
    0.200000000000D+01 0.000000000000D+00-0.204890966415D-07 0.560000000000D+02
    0.497526000000D+06 0.400000000000D+01 0.000000000000D+00 0.000000000000D+00
24 17  4 21 20  0  0.0-0.337082892656D-04-0.568434188608D-12 0.000000000000D+00
    0.400000000000D+01-0.175625000000D+02 0.526057641892D-08-0.744757346796D+00
   -0.828877091408D-06 0.564781017601D-02 0.549107789993D-05 0.515369056702D+04
    0.504000000000D+06 0.124797224999D-06 0.133747324164D+01 0.186264514923D-07
    0.945558717059D+00 0.265437500000D+03 0.486372593634D+00-0.855035597880D-08
   -0.254653464982D-09 0.100000000000D+01 0.194500000000D+04 0.000000000000D+00
    0.200000000000D+01 0.000000000000D+00 0.279396772385D-08 0.400000000000D+01
    0.496800000000D+06 0.000000000000D+00 0.000000000000D+00 0.000000000000D+00
25 17  4 21 20  0  0.0-0.374057330191D-03-0.659383658785D-11 0.000000000000D+00
    0.250000000000D+02 0.915625000000D+01 0.405802617594D-08-0.270059476389D+01
    0.448897480965D-06 0.647178664803D-02 0.105891376734D-04 0.515360733795D+04
    0.504000000000D+06 0.838190317154D-07 0.241932233261D+01-0.152736902237D-06
    0.977358777385D+00 0.181968750000D+03 0.792171956867D+00-0.775210862073D-08
   -0.650027076237D-10 0.100000000000D+01 0.194500000000D+04 0.000000000000D+00
    0.200000000000D+01 0.000000000000D+00 0.558793544769D-08 0.250000000000D+02
    0.496800000000D+06 0.400000000000D+01 0.000000000000D+00 0.000000000000D+00
26 17  4 21 20  0  0.0-0.511588063091D-03 0.306954461848D-11 0.000000000000D+00
    0.710000000000D+02 0.965625000000D+01 0.448482966830D-08 0.299577407040D+01
    0.551342964172D-06 0.182714511175D-02 0.991299748421D-05 0.515369605446D+04
    0.504000000000D+06-0.484287738800D-07 0.240453425112D+01 0.000000000000D+00
    0.959139216730D+00 0.188906250000D+03 0.667585490815D-01-0.796926052312D-08
   -0.101789954246D-09 0.100000000000D+01 0.194500000000D+04 0.000000000000D+00
    0.200000000000D+01 0.000000000000D+00 0.745058059692D-08 0.710000000000D+02
    0.496800000000D+06 0.400000000000D+01 0.000000000000D+00 0.000000000000D+00
27 17  4 21 20  0  0.0 0.244665890932D-03 0.636646291241D-11 0.000000000000D+00
    0.550000000000D+02 0.450625000000D+02 0.441732685654D-08 0.126392910944D+01
    0.259093940258D-05 0.471928983461D-02 0.567920506000D-05 0.515366397095D+04
    0.504000000000D+06 0.726431608200D-07-0.282450197075D+01 0.949949026108D-07
    0.974778580492D+00 0.275218750000D+03 0.320227104596D+00-0.821141346690D-08
    0.133219834855D-09 0.100000000000D+01 0.194500000000D+04 0.000000000000D+00
    0.290000000000D+01 0.000000000000D+00 0.139698386192D-08 0.550000000000D+02
    0.502590000000D+06 0.400000000000D+01 0.000000000000D+00 0.000000000000D+00
28 17  4 21 20  0  0.0 0.606777612120D-03 0.306954461848D-11 0.000000000000D+00
    0.240000000000D+02 0.313125000000D+02 0.370336854588D-08 0.206962556547D+01
    0.143982470036D-05 0.197443040088D-01 0.105053186417D-04 0.515365199852D+04
    0.504000000000D+06 0.301748514175D-06 0.249761849380D+01-0.206753611565D-06
    0.988723042478D+00 0.186031250000D+03-0.157078979925D+01-0.737959310396D-08
   -0.910752222200D-10 0.100000000000D+01 0.194500000000D+04 0.000000000000D+00
    0.280000000000D+01 0.000000000000D+00-0.111758708954D-07 0.240000000000D+02
    0.497880000000D+06 0.400000000000D+01 0.000000000000D+00 0.000000000000D+00
29 17  4 21 20  0  0.0 0.610706862062D-03-0.306954461848D-11 0.000000000000D+00
    0.800000000000D+02 0.420312500000D+02 0.422053294499D-08 0.312676977220D+01
    0.199116766453D-05 0.712790177204D-03 0.573322176933D-05 0.515364242554D+04
    0.504000000000D+06-0.782310962677D-07-0.276265677248D+01 0.335276126862D-07
    0.980954703169D+00 0.276812500000D+03 0.153527628962D+00-0.804176354316D-08
    0.172864343351D-09 0.100000000000D+01 0.194500000000D+04 0.000000000000D+00
    0.200000000000D+01 0.000000000000D+00-0.977888703346D-08 0.800000000000D+02
    0.496800000000D+06 0.400000000000D+01 0.000000000000D+00 0.000000000000D+00
30 17  4 21 20  0  0.0 0.158516224474D-03-0.682121026330D-12 0.000000000000D+00
    0.100000000000D+02-0.183125000000D+02 0.509664086698D-08-0.153938144695D+01
   -0.121630728245D-05 0.266899971757D-02 0.656023621559D-05 0.515368550682D+04
    0.504000000000D+06 0.838190317154D-07 0.142979457401D+01-0.204890966415D-07
    0.948218144132D+00 0.247125000000D+03 0.306164155462D+01-0.840999316711D-08
   -0.269654089318D-09 0.100000000000D+01 0.194500000000D+04 0.000000000000D+00
    0.200000000000D+01 0.000000000000D+00 0.372529029846D-08 0.100000000000D+02
    0.496800000000D+06 0.400000000000D+01 0.000000000000D+00 0.000000000000D+00
31 17  4 21 20  0  0.0 0.205805059522D-03-0.238742359215D-11 0.000000000000D+00
    0.370000000000D+02-0.211875000000D+02 0.472769692755D-08-0.178597980269D+01
   -0.130571424961D-05 0.845196156297D-02 0.643543899059D-05 0.515368532562D+04
    0.504000000000D+06-0.106170773506D-06 0.140113444936D+01-0.197440385819D-06
    0.967237258274D+00 0.262531250000D+03-0.260318031588D+00-0.825462955274D-08
   -0.185722021782D-09 0.100000000000D+01 0.194500000000D+04 0.000000000000D+00
    0.200000000000D+01 0.000000000000D+00-0.135041773319D-07 0.370000000000D+02
    0.496800000000D+06 0.400000000000D+01 0.000000000000D+00 0.000000000000D+00
32 17  4 21 20  0  0.0-0.391851644963D-03-0.113686837722D-10 0.000000000000D+00
    0.180000000000D+02 0.552187500000D+02 0.470555314803D-08 0.196491065885D+01
    0.293180346489D-05 0.106256955769D-02 0.696629285812D-05 0.515371753693D+04
    0.504000000000D+06-0.670552253723D-07 0.314700049412D+00 0.745058059692D-07
    0.958554393284D+00 0.239031250000D+03-0.267588160539D+01-0.822462830307D-08
    0.395730769489D-09 0.100000000000D+01 0.194500000000D+04 0.000000000000D+00
    0.200000000000D+01 0.000000000000D+00 0.465661287308D-09 0.180000000000D+02
    0.497820000000D+06 0.400000000000D+01 0.000000000000D+00 0.000000000000D+00
 9 17  4 21 21 59 44.0 0.347671564668D-03 0.784439180279D-11 0.000000000000D+00
    0.000000000000D+00 0.585312500000D+02 0.474626912973D-08 0.230764823984D+01
    0.308826565743D-05 0.824360642582D-03 0.680983066559D-05 0.515364727974D+04
    0.511184000000D+06 0.372529029846D-08 0.311627656657D+00 0.689178705216D-07
    0.954054572842D+00 0.244781250000D+03 0.189399323994D+01-0.819284126472D-08
    0.347514475373D-09 0.100000000000D+01 0.194500000000D+04 0.000000000000D+00
    0.200000000000D+01 0.000000000000D+00 0.139698386192D-08 0.000000000000D+00
    0.507408000000D+06 0.400000000000D+01 0.000000000000D+00 0.000000000000D+00
26 17  4 21 21 59 44.0-0.511565245688D-03 0.306954461848D-11 0.000000000000D+00
    0.300000000000D+01 0.968750000000D+00 0.452483133453D-08-0.223985913373D+01
   -0.428408384323D-07 0.182892929297D-02 0.105127692223D-04 0.515369256973D+04
    0.511184000000D+06-0.130385160446D-07 0.240447672772D+01-0.651925802231D-07
    0.959138398958D+00 0.178468750000D+03 0.670412740925D-01-0.801176229349D-08
   -0.721458623076D-10 0.100000000000D+01 0.194500000000D+04 0.000000000000D+00
    0.200000000000D+01 0.000000000000D+00 0.745058059692D-08 0.300000000000D+01
    0.508140000000D+06 0.400000000000D+01 0.000000000000D+00 0.000000000000D+00
